[{"OBJECT_NAME":"LEMUR-2-ANDIS","OBJECT_ID":"2017-042P","EPOCH":"2026-03-09T13:25:33.116448","MEAN_MOTION":15.30557934,"ECCENTRICITY":0.0009101,"INCLINATION":97.3659,"RA_OF_ASC_NODE":249.795,"ARG_OF_PERICENTER":4.3248,"MEAN_ANOMALY":355.807,"EPHEMERIS_TYPE":0,"CLASSIFICATION_TYPE":"U","NORAD_CAT_ID":42838,"ELEMENT_SET_NO":999,"REV_AT_EPOCH":47319,"BSTAR":0.00079875,"MEAN_MOTION_DOT":0.00023598,"MEAN_MOTION_DDOT":0},{"OBJECT_NAME":"STARLINK-35036","OBJECT_ID":"2025-192C","EPOCH":"2026-03-09T22:00:01.999584","MEAN_MOTION":15.30157604,"ECCENTRICITY":0.0001095,"INCLINATION":53.1584,"RA_OF_ASC_NODE":231.3752,"ARG_OF_PERICENTER":74.8228,"MEAN_ANOMALY":79.2617,"EPHEMERIS_TYPE":0,"CLASSIFICATION_TYPE":"U","NORAD_CAT_ID":65406,"ELEMENT_SET_NO":999,"REV_AT_EPOCH":589,"BSTAR":0.0022319849,"MEAN_MOTION_DOT":0.0006625,"MEAN_MOTION_DDOT":0}]
